ONEWEB-0461             
1 51649U 22012AD  25046.55417319  .00000068  00000+0  14085-3 0  9998
2 51649  87.9047 102.8052 0001838  97.8586 262.2755 13.17650344149808
ONEWEB-0463             
1 51650U 22012AE  25046.61154362 -.00000114  00000+0 -32664-3 0  9990
2 51650  87.9056 102.8520 0001905 100.2193 259.9153 13.17650458149595
ONEWEB-0464             
1 51651U 22012AF  25046.48293536 -.00000335  00000+0 -99567-3 0  9993
2 51651  87.8904 133.2833 0002187 109.7937 250.3427 13.10370498145585
ONEWEB-0468             
1 51652U 22012AG  25046.48956751 -.00000559  00000+0 -16381-2 0  9999
2 51652  87.8905 133.2739 0001825 108.1158 252.0169 13.10371911145569
ONEWEB-0473             
1 51653U 22012AH  25046.47463870  .00000050  00000+0  10728-3 0  9998
2 51653  87.8904 133.2805 0001849 111.3646 248.7679 13.10369150145567
ONEWEB-0474             
1 51654U 22012AJ  25046.46634464  .00000465  00000+0  12965-2 0  9991
2 51654  87.8892 133.2564 0002013 112.9739 247.1600 13.10370823145555
ONEWEB-0475             
1 51655U 22012AK  25046.54742398  .00000096  00000+0  21440-3 0  9996
2 51655  87.9054 102.8439 0002141 122.5940 237.5399 13.17650103149600
ONEWEB-0490             
1 54113U 22138A   25046.46657901  .00000107  00000+0  23446-3 0  9994
2 54113  87.9154  41.7008 0001977  91.0839 269.0520 13.19727807112636
